[{"OBJECT_NAME":"JILIN-1 10","OBJECT_ID":"2019-005E","EPOCH":"2026-03-09T22:11:06.915840","MEAN_MOTION":15.2445874,"ECCENTRICITY":0.00069203,"INCLINATION":97.4731,"RA_OF_ASC_NODE":167.8564,"ARG_OF_PERICENTER":265.2171,"MEAN_ANOMALY":94.8276,"EPHEMERIS_TYPE":0,"CLASSIFICATION_TYPE":"U","NORAD_CAT_ID":43946,"ELEMENT_SET_NO":999,"REV_AT_EPOCH":39418,"BSTAR":0.00035023991,"MEAN_MOTION_DOT":8.535e-5,"MEAN_MOTION_DDOT":0},{"OBJECT_NAME":"ION SCV-017","OBJECT_ID":"2025-052W","EPOCH":"2026-03-09T17:11:44.577024","MEAN_MOTION":15.26881798,"ECCENTRICITY":0.0023746,"INCLINATION":97.4016,"RA_OF_ASC_NODE":324.7516,"ARG_OF_PERICENTER":44.9875,"MEAN_ANOMALY":315.3282,"EPHEMERIS_TYPE":0,"CLASSIFICATION_TYPE":"U","NORAD_CAT_ID":63230,"ELEMENT_SET_NO":999,"REV_AT_EPOCH":5485,"BSTAR":0.00024539061,"MEAN_MOTION_DOT":6.457e-5,"MEAN_MOTION_DDOT":0}]
